ONEWEB-0624             
1 55165U 23004AB  23304.90138560  .00000070  00000+0  16118-3 0  9991
2 55165  87.9154 181.3376 0001975  81.9137 278.2216 13.11976533 42225
ONEWEB-0625             
1 55166U 23004AC  23304.47771204  .00000005  00000+0 -20841-4 0  9990
2 55166  87.9232 196.6434 0001999  69.0653 291.0692 13.17650222 41199
ONEWEB-0626             
1 55167U 23004AD  23304.76877453  .00000088  00000+0  19265-3 0  9993
2 55167  87.9249 196.5765 0001184  86.0148 274.1118 13.17647502 41235
ONEWEB-0627             
1 55168U 23004AE  23304.61056838  .00000032  00000+0  48879-4 0  9997
2 55168  87.9229 196.6214 0002105  99.0370 261.1000 13.17651651 41213
ONEWEB-0628             
1 55169U 23004AF  23304.42390074  .00000418  00000+0  11272-2 0  9993
2 55169  87.8967 181.5094 0002152  87.0949 273.0426 13.12444740 42143
ONEWEB-0629             
1 55170U 23004AG  23304.22456865  .00000156  00000+0  36786-3 0  9991
2 55170  87.9244 196.6843 0002329  79.1094 281.0300 13.17647382 41165
ONEWEB-0631             
1 55171U 23004AH  23304.58334491 -.00767182  00000+0 -83273+0 0  9991
2 55171  87.3960 167.2414 0003568  37.5471 262.4029 13.75913682  5575
ONEWEB-0709             
1 55172U 23004AJ  23304.46604558 -.00000455  00000+0 -13186-2 0  9995
2 55172  87.9019 211.7719 0000874  86.2724 273.8504 13.11412302 40081
